CCSDS_OMM_VERS = 2.0
CREATION_DATE  = 
ORIGINATOR     = 

OBJECT_NAME    = STARLINK-36586
OBJECT_ID      = 2026-014S
CENTER_NAME    = EARTH
REF_FRAME      = TEME
TIME_SYSTEM    = UTC
MEAN_ELEMENT_THEORY = SGP/SGP4

EPOCH          = 2026-02-06T20:00:01.999008
MEAN_MOTION    = 15.80879241
ECCENTRICITY   = .0001369
INCLINATION    = 97.2844
RA_OF_ASC_NODE = 281.2131
ARG_OF_PERICENTER = 91.6386
MEAN_ANOMALY   = 283.1176

EPHEMERIS_TYPE = 0
CLASSIFICATION_TYPE = U
NORAD_CAT_ID   = 67548
ELEMENT_SET_NO = 999
REV_AT_EPOCH   = 372
BSTAR          = -.42146E-3
MEAN_MOTION_DOT = -.80365E-3
MEAN_MOTION_DDOT = 0

CCSDS_OMM_VERS = 2.0
CREATION_DATE  = 
ORIGINATOR     = 

OBJECT_NAME    = STARLINK-36564
OBJECT_ID      = 2026-014T
CENTER_NAME    = EARTH
REF_FRAME      = TEME
TIME_SYSTEM    = UTC
MEAN_ELEMENT_THEORY = SGP/SGP4

EPOCH          = 2026-02-06T20:00:01.999008
MEAN_MOTION    = 15.81257009
ECCENTRICITY   = .0001603
INCLINATION    = 97.2838
RA_OF_ASC_NODE = 281.2153
ARG_OF_PERICENTER = 78.1491
MEAN_ANOMALY   = 303.3217

EPHEMERIS_TYPE = 0
CLASSIFICATION_TYPE = U
NORAD_CAT_ID   = 67549
ELEMENT_SET_NO = 999
REV_AT_EPOCH   = 367
BSTAR          = -.73009E-2
MEAN_MOTION_DOT = -.1262343E-1
MEAN_MOTION_DDOT = 0

CCSDS_OMM_VERS = 2.0
CREATION_DATE  = 
ORIGINATOR     = 

OBJECT_NAME    = STARLINK-36563
OBJECT_ID      = 2026-014U
CENTER_NAME    = EARTH
REF_FRAME      = TEME
TIME_SYSTEM    = UTC
MEAN_ELEMENT_THEORY = SGP/SGP4

EPOCH          = 2026-02-06T20:00:01.999008
MEAN_MOTION    = 15.80868690
ECCENTRICITY   = .0001308
INCLINATION    = 97.2790
RA_OF_ASC_NODE = 281.2159
ARG_OF_PERICENTER = 81.7919
MEAN_ANOMALY   = 306.4819

EPHEMERIS_TYPE = 0
CLASSIFICATION_TYPE = U
NORAD_CAT_ID   = 67550
ELEMENT_SET_NO = 999
REV_AT_EPOCH   = 372
BSTAR          = -.36409E-3
MEAN_MOTION_DOT = -.69496E-3
MEAN_MOTION_DDOT = 0

CCSDS_OMM_VERS = 2.0
CREATION_DATE  = 
ORIGINATOR     = 

OBJECT_NAME    = STARLINK-36566
OBJECT_ID      = 2026-014V
CENTER_NAME    = EARTH
REF_FRAME      = TEME
TIME_SYSTEM    = UTC
MEAN_ELEMENT_THEORY = SGP/SGP4

EPOCH          = 2026-02-06T20:00:01.999008
MEAN_MOTION    = 15.80938547
ECCENTRICITY   = .0002176
INCLINATION    = 97.2828
RA_OF_ASC_NODE = 281.2195
ARG_OF_PERICENTER = 50.4300
MEAN_ANOMALY   = 343.9943

EPHEMERIS_TYPE = 0
CLASSIFICATION_TYPE = U
NORAD_CAT_ID   = 67551
ELEMENT_SET_NO = 999
REV_AT_EPOCH   = 372
BSTAR          = -.78084E-3
MEAN_MOTION_DOT = -.148055E-2
MEAN_MOTION_DDOT = 0

CCSDS_OMM_VERS = 2.0
CREATION_DATE  = 
ORIGINATOR     = 

OBJECT_NAME    = STARLINK-36567
OBJECT_ID      = 2026-014W
CENTER_NAME    = EARTH
REF_FRAME      = TEME
TIME_SYSTEM    = UTC
MEAN_ELEMENT_THEORY = SGP/SGP4

EPOCH          = 2026-02-06T20:00:01.999008
MEAN_MOTION    = 15.75117055
ECCENTRICITY   = .00017
INCLINATION    = 97.2757
RA_OF_ASC_NODE = 281.2145
ARG_OF_PERICENTER = 109.6202
MEAN_ANOMALY   = 277.9925

EPHEMERIS_TYPE = 0
CLASSIFICATION_TYPE = U
NORAD_CAT_ID   = 67552
ELEMENT_SET_NO = 999
REV_AT_EPOCH   = 372
BSTAR          = .81044E-3
MEAN_MOTION_DOT = .122112E-2
MEAN_MOTION_DDOT = 0

CCSDS_OMM_VERS = 2.0
CREATION_DATE  = 
ORIGINATOR     = 

OBJECT_NAME    = STARLINK-36569
OBJECT_ID      = 2026-014X
CENTER_NAME    = EARTH
REF_FRAME      = TEME
TIME_SYSTEM    = UTC
MEAN_ELEMENT_THEORY = SGP/SGP4

EPOCH          = 2026-02-06T20:00:01.999008
MEAN_MOTION    = 15.80967700
ECCENTRICITY   = .0001168
INCLINATION    = 97.2746
RA_OF_ASC_NODE = 281.2236
ARG_OF_PERICENTER = 89.0611
MEAN_ANOMALY   = 319.8883

EPHEMERIS_TYPE = 0
CLASSIFICATION_TYPE = U
NORAD_CAT_ID   = 67553
ELEMENT_SET_NO = 999
REV_AT_EPOCH   = 372
BSTAR          = -.95611E-3
MEAN_MOTION_DOT = -.18079E-2
MEAN_MOTION_DDOT = 0

CCSDS_OMM_VERS = 2.0
CREATION_DATE  = 
ORIGINATOR     = 

OBJECT_NAME    = STARLINK-36395
OBJECT_ID      = 2026-014Y
CENTER_NAME    = EARTH
REF_FRAME      = TEME
TIME_SYSTEM    = UTC
MEAN_ELEMENT_THEORY = SGP/SGP4

EPOCH          = 2026-02-06T20:00:01.999008
MEAN_MOTION    = 15.75244754
ECCENTRICITY   = .0001451
INCLINATION    = 97.2748
RA_OF_ASC_NODE = 281.2284
ARG_OF_PERICENTER = 92.0977
MEAN_ANOMALY   = 327.4769

EPHEMERIS_TYPE = 0
CLASSIFICATION_TYPE = U
NORAD_CAT_ID   = 67554
ELEMENT_SET_NO = 999
REV_AT_EPOCH   = 372
BSTAR          = -.72778E-3
MEAN_MOTION_DOT = -.107583E-2
MEAN_MOTION_DDOT = 0

CCSDS_OMM_VERS = 2.0
CREATION_DATE  = 
ORIGINATOR     = 

OBJECT_NAME    = STARLINK-36559
OBJECT_ID      = 2026-014Z
CENTER_NAME    = EARTH
REF_FRAME      = TEME
TIME_SYSTEM    = UTC
MEAN_ELEMENT_THEORY = SGP/SGP4

EPOCH          = 2026-02-06T20:00:01.999008
MEAN_MOTION    = 15.75174243
ECCENTRICITY   = .0001626
INCLINATION    = 97.2752
RA_OF_ASC_NODE = 281.2248
ARG_OF_PERICENTER = 77.4797
MEAN_ANOMALY   = 334.1282

EPHEMERIS_TYPE = 0
CLASSIFICATION_TYPE = U
NORAD_CAT_ID   = 67555
ELEMENT_SET_NO = 999
REV_AT_EPOCH   = 372
BSTAR          = -.24828E-4
MEAN_MOTION_DOT = -.3828E-4
MEAN_MOTION_DDOT = 0

CCSDS_OMM_VERS = 2.0
CREATION_DATE  = 
ORIGINATOR     = 

OBJECT_NAME    = MR-1
OBJECT_ID      = 2026-015A
CENTER_NAME    = EARTH
REF_FRAME      = TEME
TIME_SYSTEM    = UTC
MEAN_ELEMENT_THEORY = SGP/SGP4

EPOCH          = 2026-02-06T17:15:08.000640
MEAN_MOTION    = 13.52686138
ECCENTRICITY   = .0005096
INCLINATION    = 88.9983
RA_OF_ASC_NODE = 281.8099
ARG_OF_PERICENTER = 94.0674
MEAN_ANOMALY   = 266.1060

EPHEMERIS_TYPE = 0
CLASSIFICATION_TYPE = U
NORAD_CAT_ID   = 67556
ELEMENT_SET_NO = 999
REV_AT_EPOCH   = 207
BSTAR          = .85447E-4
MEAN_MOTION_DOT = .69E-6
MEAN_MOTION_DDOT = 0

CCSDS_OMM_VERS = 2.0
CREATION_DATE  = 
ORIGINATOR     = 

OBJECT_NAME    = MR-2
OBJECT_ID      = 2026-015B
CENTER_NAME    = EARTH
REF_FRAME      = TEME
TIME_SYSTEM    = UTC
MEAN_ELEMENT_THEORY = SGP/SGP4

EPOCH          = 2026-02-06T17:15:31.912704
MEAN_MOTION    = 13.52660881
ECCENTRICITY   = .0005155
INCLINATION    = 88.9982
RA_OF_ASC_NODE = 281.8100
ARG_OF_PERICENTER = 93.1134
MEAN_ANOMALY   = 267.0608

EPHEMERIS_TYPE = 0
CLASSIFICATION_TYPE = U
NORAD_CAT_ID   = 67557
ELEMENT_SET_NO = 999
REV_AT_EPOCH   = 207
BSTAR          = .34211E-4
MEAN_MOTION_DOT = .35E-6
MEAN_MOTION_DDOT = 0

CCSDS_OMM_VERS = 2.0
CREATION_DATE  = 
ORIGINATOR     = 

OBJECT_NAME    = ELECTRON R/B
OBJECT_ID      = 2026-015C
CENTER_NAME    = EARTH
REF_FRAME      = TEME
TIME_SYSTEM    = UTC
MEAN_ELEMENT_THEORY = SGP/SGP4

EPOCH          = 2026-02-06T16:28:43.666464
MEAN_MOTION    = 15.13188626
ECCENTRICITY   = .0516667
INCLINATION    = 88.9995
RA_OF_ASC_NODE = 281.3885
ARG_OF_PERICENTER = 214.4939
MEAN_ANOMALY   = 142.1760

EPHEMERIS_TYPE = 0
CLASSIFICATION_TYPE = U
NORAD_CAT_ID   = 67558
ELEMENT_SET_NO = 999
REV_AT_EPOCH   = 228
BSTAR          = .14048E-2
MEAN_MOTION_DOT = .1678286E-1
MEAN_MOTION_DDOT = -.7797E-6

CCSDS_OMM_VERS = 2.0
CREATION_DATE  = 
ORIGINATOR     = 

OBJECT_NAME    = ELECTRON KICK STAGE R/B
OBJECT_ID      = 2026-015D
CENTER_NAME    = EARTH
REF_FRAME      = TEME
TIME_SYSTEM    = UTC
MEAN_ELEMENT_THEORY = SGP/SGP4

EPOCH          = 2026-02-06T16:52:12.904032
MEAN_MOTION    = 14.67186048
ECCENTRICITY   = .0532656
INCLINATION    = 89.0514
RA_OF_ASC_NODE = 281.5606
ARG_OF_PERICENTER = 282.1490
MEAN_ANOMALY   = 72.0561

EPHEMERIS_TYPE = 0
CLASSIFICATION_TYPE = U
NORAD_CAT_ID   = 67559
ELEMENT_SET_NO = 999
REV_AT_EPOCH   = 224
BSTAR          = .12065E-2
MEAN_MOTION_DOT = .71071E-3
MEAN_MOTION_DDOT = .34488E-6

