STARLINK-36586          
1 67548U 26014S   26037.83335647 -.00080365  00000+0 -42146-3 0  9993
2 67548  97.2844 281.2131 0001369  91.6386 283.1176 15.80879241  3721
STARLINK-36564          
1 67549U 26014T   26037.83335647 -.01262343  00000+0 -73009-2 0  9994
2 67549  97.2838 281.2153 0001603  78.1491 303.3217 15.81257009  3675
STARLINK-36563          
1 67550U 26014U   26037.83335647 -.00069496  00000+0 -36409-3 0  9993
2 67550  97.2790 281.2159 0001308  81.7919 306.4819 15.80868690  3728
STARLINK-36566          
1 67551U 26014V   26037.83335647 -.00148055  00000+0 -78084-3 0  9998
2 67551  97.2828 281.2195 0002176  50.4300 343.9943 15.80938547  3725
STARLINK-36567          
1 67552U 26014W   26037.83335647  .00122112  00000+0  81044-3 0  9993
2 67552  97.2757 281.2145 0001700 109.6202 277.9925 15.75117055  3725
STARLINK-36569          
1 67553U 26014X   26037.83335647 -.00180790  00000+0 -95611-3 0  9997
2 67553  97.2746 281.2236 0001168  89.0611 319.8883 15.80967700  3723
STARLINK-36395          
1 67554U 26014Y   26037.83335647 -.00107583  00000+0 -72778-3 0  9996
2 67554  97.2748 281.2284 0001451  92.0977 327.4769 15.75244754  3722
STARLINK-36559          
1 67555U 26014Z   26037.83335647 -.00003828  00000+0 -24828-4 0  9998
2 67555  97.2752 281.2248 0001626  77.4797 334.1282 15.75174243  3729
MR-1                    
1 67556U 26015A   26037.71884260  .00000069  00000+0  85447-4 0  9993
2 67556  88.9983 281.8099 0005096  94.0674 266.1060 13.52686138  2076
MR-2                    
1 67557U 26015B   26037.71911936  .00000035  00000+0  34211-4 0  9991
2 67557  88.9982 281.8100 0005155  93.1134 267.0608 13.52660881  2071
ELECTRON R/B            
1 67558U 26015C   26037.68661651  .01678286 -77970-6  14048-2 0  9996
2 67558  88.9995 281.3885 0516667 214.4939 142.1760 15.13188626  2283
ELECTRON KICK STAGE R/B 
1 67559U 26015D   26037.70292713  .00071071  34488-6  12065-2 0  9990
2 67559  89.0514 281.5606 0532656 282.1490  72.0561 14.67186048  2246
